ORBCOMM FM05 [-]        
1 25117U 97084F   23241.16263192  .00001309  00000+0  44494-3 0  9996
2 25117  45.0159 274.8055 0002958 209.1628 150.9057 14.41301524346471
ORBCOMM FM06 [+]        
1 25118U 97084G   23241.12314171  .00001255  00000+0  42901-3 0  9998
2 25118  45.0154 275.1314 0002905 228.4684 160.9670 14.41233457346467
ORBCOMM FM07 [-]        
1 25119U 97084H   23241.37469116  .00001230  00000+0  42171-3 0  9998
2 25119  45.0148 274.3546 0002820 192.5776 167.5004 14.41178761346491
ORBCOMM FM03 [-]        
1 25158U 98007B   23241.20567839  .00001321  00000+0  54174-3 0  9997
2 25158 107.9812 227.3848 0049441 315.3107  44.4052 14.31189215329948
ORBCOMM FM04 [+]        
1 25159U 98007C   23241.24115072  .00001159  00000+0  48011-3 0  9992
2 25159 107.9796 230.2223 0044942 313.2094  46.5295 14.31469699330089
ORBCOMM FM17 [-]        
1 25413U 98046A   23240.71461551  .00000871  00000+0  37153-3 0  9990
2 25413  44.9949 117.6692 0001245 138.0325 222.0617 14.32262241308684
ORBCOMM FM18 [-]        
1 25414U 98046B   23241.31343973  .00001229  00000+0  47923-3 0  9999
2 25414  44.9951  47.0634 0004606 207.0852 152.9755 14.34723561309826
ORBCOMM FM19 [+]        
1 25415U 98046C   23240.86625830  .00001164  00000+0  45768-3 0  9997
2 25415  44.9960  50.2758 0003477 194.2305 325.3396 14.34603020309559
